TDRS 3                  
1 19548U 88091B   24338.43653127 -.00000281  00000+0  00000+0 0  9994
2 19548  13.0329 344.7489 0039823 337.5253 218.7409  1.00277223119768
HST                     
1 20580U 90037B   24339.50256006  .00012481  00000+0  52920-3 0  9995
2 20580  28.4694 281.0825 0002237 103.3937 256.6906 15.21555689703221
TDRS 5                  
1 21639U 91054B   24338.93435687 -.00000286  00000+0  00000+0 0  9990
2 21639  14.1404 357.8677 0006237 257.6856  91.8030  1.00276284122092
TDRS 6                  
1 22314U 93003B   24336.52115837 -.00000277  00000+0  00000+0 0  9992
2 22314  14.1690   1.1907 0009703 189.1261  22.1737  1.00278764116768
TDRS 7                  
1 23613U 95035B   24338.61461360 -.00000181  00000+0  00000+0 0  9993
2 23613  13.6112 352.0481 0021827  72.1639 314.5404  1.00265746107631
ISS (ZARYA)             
1 25544U 98067A   24339.55581009  .00017410  00000+0  30986-3 0  9995
2 25544  51.6389 191.3284 0006976 301.1757  99.3335 15.50210297484970
TERRA                   
1 25994U 99068A   24339.47138944  .00001452  00000+0  31007-3 0  9997
2 25994  98.0275  37.8123 0002450 159.9412 313.6976 14.60284768328013
TDRS 8                  
1 26388U 00034A   24339.46676550  .00000110  00000+0  00000+0 0  9994
2 26388  11.8015  35.8661 0007299 220.5630 177.6527  1.00271953 89560
TIMED                   
1 26998U 01055B   24339.15477555  .00004188  00000+0  40827-3 0  9999
2 26998  74.0708 280.7490 0003096 268.1434  91.9395 14.92805245247311
AQUA                    
1 27424U 02022A   24339.50121792  .00002914  00000+0  61105-3 0  9994
2 27424  98.3535 289.8108 0000779  42.3522  73.6049 14.60454938201568
TDRS 10                 
1 27566U 02055A   24338.55034270  .00000106  00000+0  00000+0 0  9999
2 27566   9.8871  44.1225 0004565 283.0093 132.8407  1.00278681 80617
SORCE                   
1 27651U 03004A   24338.67947275  .00007712  00000+0  65169-3 0  9991
2 27651  39.9902 207.3171 0021106 349.4515  10.5832 14.97936042187647
AURA                    
1 28376U 04026A   24339.43951205  .00002857  00000+0  60885-3 0  9999
2 28376  98.2719 283.3626 0000442  64.0262 296.0983 14.59712834 84546
SWIFT                   
1 28485U 04047A   24338.86101053  .00030381  00000+0  10678-2 0  9994
2 28485  20.5570  39.6964 0006033 325.5412  34.4634 15.27531540100221
THEMIS A                
1 30580U 07004A   24337.96606045 -.00000254  00000+0  00000+0 0  9992
2 30580   7.7540 250.7662 8414371 353.1051   0.5446  0.87838035 36342
THEMIS D                
1 30797U 07004D   24338.81776317 -.00000297  00000+0  00000+0 0  9994
2 30797   3.1611 251.1098 8401814 357.0087 258.8352  0.87838796 36145
THEMIS E                
1 30798U 07004E   24338.75095203 -.00000305  00000+0  00000+0 0  9996
2 30798   5.4050 274.9242 8390150 334.1746 251.1419  0.87836153 60984
FGRST (GLAST)           
1 33053U 08029A   24339.50693399  .00006073  00000+0  26574-3 0  9990
2 33053  25.5812 117.7016 0009200 220.5760 139.4092 15.19154842910700
TDRS 11                 
1 39070U 13004A   24339.14243647  .00000100  00000+0  00000+0 0  9998
2 39070   2.8537  17.4884 0001768  30.6078 262.2320  1.00274121 43376
TDRS 12                 
1 39504U 14004A   24339.43878532 -.00000249  00000+0  00000+0 0  9995
2 39504   3.5896   7.5128 0005618 241.6940 301.5598  1.00276001 39834
GPM-CORE                
1 39574U 14009C   24338.68667919  .00026705  00000+0  57152-3 0  9996
2 39574  64.9818  25.5047 0012093 266.6963  93.2794 15.44654997611233
MMS 1                   
1 40482U 15011A   24339.58334491 -.00000297  00000+0  00000+0 0  9991
2 40482  57.0711   1.6818 8936048 154.1441 299.6885  0.28458238 15859
MMS 2                   
1 40483U 15011B   24339.58334491 -.00000297  00000+0  00000+0 0  9992
2 40483  57.0682   1.6825 8935897 154.1420 298.2216  0.28458591 15836
MMS 3                   
1 40484U 15011C   24339.58334491 -.00000297  00000+0  00000+0 0  9993
2 40484  57.0683   1.6804 8935727 154.1458 298.4293  0.28466361 15839
MMS 4                   
1 40485U 15011D   24339.58334491 -.00000297  00000+0  00000+0 0  9994
2 40485  57.0540   1.6857 8934726 154.1368 288.5068  0.28476427 15832
TDRS 13                 
1 42915U 17047A   24339.37327738 -.00000078  00000+0  00000+0 0  9995
2 42915   3.5281 348.4905 0011277 126.0753  82.1564  1.00271333 26764
NOAA 20 (JPSS-1)        
1 43013U 17073A   24339.42012520  .00000318  00000+0  17167-3 0  9992
2 43013  98.7237 274.5895 0002350  81.5947 278.5495 14.19580586365059
